
# Worst residual: 109.86 km
# MJD 59995.000000 (2023 Feb 20  0:00)
C1AUGE1 = ZTF0Edd = 'Multijunk'
1 89983U 00000AAQ 23051.49919926  .00000000  00000-0  00000-0 0 19369
2 89983 017.7701 346.0793 7792482 327.7816 307.6003 00.38906522    01

# Worst residual: 116.16 km
# MJD 59996.000000 (2023 Feb 21  0:00)
C1AUGE1 = ZTF0Edd = 'Multijunk'
1 89983U 00000AAQ 23052.49919926  .00000000  00000-0  00000-0 0 19360
2 89983 017.7477 346.1143 7766919 328.9726 087.5684 00.38917860    06

# Worst residual: 116.16 km
# MJD 59997.000000 (2023 Feb 22  0:00)
C1AUGE1 = ZTF0Edd = 'Multijunk'
1 89983U 00000AAQ 23053.49919926  .00000000  00000-0  00000-0 0 19361
2 89983 017.6941 346.2425 7725622 329.5047 224.3000 00.38587666    04

# Worst residual: 121.22 km
# MJD 59998.000000 (2023 Feb 23  0:00)
C1AUGE1 = ZTF0Edd = 'Multijunk'
1 89983U 00000AAQ 23054.49919926  .00000000  00000-0  00000-0 0 19362
2 89983 017.6527 346.2653 7715471 330.3791 002.5517 00.39606197    05

# Worst residual: 117.23 km
# MJD 59999.000000 (2023 Feb 24  0:00)
C1AUGE1 = ZTF0Edd = 'Multijunk'
1 89983U 00000AAQ 23055.49919926  .00000000  00000-0  00000-0 0 19363
2 89983 017.6248 346.3619 7676110 331.3381 141.5801 00.38679810    01

# Worst residual: 112.89 km
# MJD 60000.000000 (2023 Feb 25  0:00)
C1AUGE1 = ZTF0Edd = 'Multijunk'
1 89983U 00000AAQ 23056.49919926  .00000000  00000-0  00000-0 0 19364
2 89983 017.5770 346.4335 7645439 331.8347 278.0710 00.38736179    00

# Worst residual: 210.47 km
# MJD 60001.000000 (2023 Feb 26  0:00)
C1AUGE1 = ZTF0Edd = 'Multijunk'
1 89983U 00000AAQ 23057.49919926  .00000000  00000-0  00000-0 0 19365
2 89983 017.5542 346.4568 7643251 332.8439 058.0716 00.39268909    02

# Worst residual: 114.90 km
# MJD 60002.000000 (2023 Feb 27  0:00)
C1AUGE1 = ZTF0Edd = 'Multijunk'
1 89983U 00000AAQ 23058.49919926  .00000000  00000-0  00000-0 0 19366
2 89983 017.5165 346.5447 7585256 333.7186 195.2443 00.38580440    06

# Worst residual: 165.43 km
# MJD 60003.000000 (2023 Feb 28  0:00)
C1AUGE1 = ZTF0Edd = 'Multijunk'
1 89983U 00000AAQ 23059.49919926  .00000000  00000-0  00000-0 0 19367
2 89983 017.4852 346.5746 7578678 334.5244 332.5305 00.39258708    07

# Worst residual: 117.38 km
# MJD 60004.000000 (2023 Mar  1  0:00)
C1AUGE1 = ZTF0Edd = 'Multijunk'
1 89983U 00000AAQ 23060.49919926  .00000000  00000-0  00000-0 0 19369
2 89983 017.4651 346.6159 7539213 335.5871 112.3978 00.38792187    05

# Worst residual: 112.62 km
# MJD 60005.000000 (2023 Mar  2  0:00)
C1AUGE1 = ZTF0Edd = 'Multijunk'
1 89983U 00000AAQ 23061.49919926  .00000000  00000-0  00000-0 0 19360
2 89983 017.4175 346.7019 7501881 336.1216 248.9325 00.38627100    06

# Worst residual: 193.49 km
# MJD 60006.000000 (2023 Mar  3  0:00)
C1AUGE1 = ZTF0Edd = 'Multijunk'
1 89983U 00000AAQ 23062.49919926  .00000000  00000-0  00000-0 0 19361
2 89983 017.3948 346.7165 7496675 337.0228 028.3264 00.39587883    08

# Worst residual: 128.31 km
# MJD 60007.000000 (2023 Mar  4  0:00)
C1AUGE1 = ZTF0Edd = 'Multijunk'
1 89983U 00000AAQ 23063.49919926  .00000000  00000-0  00000-0 0 19362
2 89983 017.3525 346.8181 7447217 338.1148 166.1500 00.38589262    05

# Worst residual: 81.36 km
# MJD 60008.000000 (2023 Mar  5  0:00)
C1AUGE1 = ZTF0Edd = 'Multijunk'
1 89983U 00000AAQ 23064.49919926  .00000000  00000-0  00000-0 0 19363
2 89983 017.3000 346.8645 7431299 338.6882 302.8768 00.38840482    00

# Worst residual: 130.85 km
# MJD 60009.000000 (2023 Mar  6  0:00)
C1AUGE1 = ZTF0Edd = 'Multijunk'
1 89983U 00000AAQ 23065.49919926  .00000000  00000-0  00000-0 0 19364
2 89983 017.2830 346.8829 7406517 340.0578 082.8205 00.38955978    06

# Worst residual: 133.78 km
# MJD 60010.000000 (2023 Mar  7  0:00)
C1AUGE1 = ZTF0Edd = 'Multijunk'
1 89983U 00000AAQ 23066.49919926  .00000000  00000-0  00000-0 0 19365
2 89983 017.2390 346.9516 7352382 340.7565 219.5365 00.38548275    08

# Worst residual: 175.75 km
# MJD 60011.000000 (2023 Mar  8  0:00)
C1AUGE1 = ZTF0Edd = 'Multijunk'
1 89983U 00000AAQ 23067.49919926  .00000000  00000-0  00000-0 0 19366
2 89983 017.2054 346.9674 7340439 341.7562 357.4402 00.39562036    04

# Worst residual: 115.25 km
# MJD 60012.000000 (2023 Mar  9  0:00)
C1AUGE1 = ZTF0Edd = 'Multijunk'
1 89983U 00000AAQ 23068.49919926  .00000000  00000-0  00000-0 0 19367
2 89983 017.1876 346.9904 7297422 342.8841 136.6991 00.38692232    07

# Worst residual: 125.32 km
# MJD 60013.000000 (2023 Mar 10  0:00)
C1AUGE1 = ZTF0Edd = 'Multijunk'
1 89983U 00000AAQ 23069.49919926  .00000000  00000-0  00000-0 0 19368
2 89983 017.1804 346.9936 7258072 343.4994 273.1736 00.38693389    05

# Worst residual: 227.65 km
# MJD 60014.000000 (2023 Mar 11  0:00)
C1AUGE1 = ZTF0Edd = 'Multijunk'
1 89983U 00000AAQ 23070.49919926  .00000000  00000-0  00000-0 0 19360
2 89983 017.1684 347.0015 7253834 344.5893 053.0498 00.39341763    09

# Worst residual: 123.11 km
# MJD 60015.000000 (2023 Mar 12  0:00)
C1AUGE1 = ZTF0Edd = 'Multijunk'
1 89983U 00000AAQ 23071.49919926  .00000000  00000-0  00000-0 0 19361
2 89983 017.1526 347.0191 7191245 345.6802 190.3279 00.38567301    07

# Worst residual: 168.86 km
# MJD 60016.000000 (2023 Mar 13  0:00)
C1AUGE1 = ZTF0Edd = 'Multijunk'
1 89983U 00000AAQ 23072.49919926  .00000000  00000-0  00000-0 0 19362
2 89983 017.1578 347.0259 7183921 346.5908 327.3767 00.39207086    04

# Worst residual: 131.59 km
# MJD 60017.000000 (2023 Mar 14  0:00)
C1AUGE1 = ZTF0Edd = 'Multijunk'
1 89983U 00000AAQ 23073.49919926  .00000000  00000-0  00000-0 0 19363
2 89983 017.1541 347.0172 7143354 347.8372 107.3423 00.38828625    05

# Worst residual: 117.59 km
# MJD 60018.000000 (2023 Mar 15  0:00)
C1AUGE1 = ZTF0Edd = 'Multijunk'
1 89983U 00000AAQ 23074.49919926  .00000000  00000-0  00000-0 0 19364
2 89983 017.1435 347.0307 7098180 348.5543 243.7802 00.38592448    08

# Worst residual: 166.49 km
# MJD 60019.000000 (2023 Mar 16  0:00)
C1AUGE1 = ZTF0Edd = 'Multijunk'
1 89983U 00000AAQ 23075.49919926  .00000000  00000-0  00000-0 0 19365
2 89983 017.1462 347.0444 7086001 349.5731 022.9134 00.39660799    00
